NORAD_CAT_ID,OBJECT_NAME,OBJECT_TYPE,EPOCH,MEAN_MOTION,ECCENTRICITY,INCLINATION,RA_OF_ASC_NODE,ARG_OF_PERICENTER,MEAN_ANOMALY,BSTAR,MEAN_MOTION_DOT,MEAN_MOTION_DDOT,TLE_LINE0,TLE_LINE1,TLE_LINE2,SEMIMAJOR_AXIS,PERIOD,APOGEE,PERIGEE,DECAYED
53408.0,STARLINK-4491,PAYLOAD,2024-04-19 21:11:14,15.08849046,0.000141,53.2181,326.299,84.8993,275.216,0.00047677,7.31e-05,0.0,0 STARLINK-4491,1 53408U 22097W   24110.88280455  .00007310  00000-0  47677-3 0  9993,2 53408  53.2181 326.2990 0001410  84.8993 275.2160 15.08849046 94179,6917.853,95.437,540.693,538.742,0.0
53408.0,STARLINK-4491,PAYLOAD,2024-04-20 14:40:29,15.08842153,0.000181,53.2178,323.029,86.1507,273.9692,7.9253e-05,9.73e-06,0.0,0 STARLINK-4491,1 53408U 22097W   24111.61144800  .00000973  00000-0  79253-4 0  9992,2 53408  53.2178 323.0290 0001810  86.1507 273.9692 15.08842153 94776,6917.874,95.437,540.991,538.487,0.0
53408.0,STARLINK-4491,PAYLOAD,2024-04-20 19:26:39,15.08809774,0.0001669,53.2175,322.1364,45.0775,315.0352,-0.00075265,-0.00012237,0.0,0 STARLINK-4491,1 53408U 22097W   24111.81017672 -.00012237  00000-0 -75265-3 0  9996,2 53408  53.2175 322.1364 0001669  45.0775 315.0352 15.08809774 94311,6917.973,95.439,540.992,538.683,0.0
53408.0,STARLINK-4491,PAYLOAD,2024-04-21 14:31:17,15.08829658,0.0001231,53.2164,318.5694,68.3745,291.7378,0.00035323,5.337e-05,0.0,0 STARLINK-4491,1 53408U 22097W   24112.60506025  .00005337  00000-0  35323-3 0  9991,2 53408  53.2164 318.5694 0001231  68.3745 291.7378 15.08829658 94922,6917.912,95.438,540.629,538.925,0.0
53408.0,STARLINK-4491,PAYLOAD,2024-04-21 19:17:26,15.08859002,0.0001605,53.2168,317.6771,90.1272,269.9904,0.001941,0.00030754,0.0,0 STARLINK-4491,1 53408U 22097W   24112.80378000  .00030754  00000-0  19410-2 0  9992,2 53408  53.2168 317.6771 0001605  90.1272 269.9904 15.08859002 94462,6917.822,95.436,540.798,538.577,0.0
53408.0,STARLINK-4491,PAYLOAD,2024-04-21 22:28:12,15.08875859,0.0001554,53.2169,317.0829,83.1646,276.9523,0.0023038,0.00036604,0.0,0 STARLINK-4491,1 53408U 22097W   24112.93625695  .00036604  00000-0  23038-2 0  9992,2 53408  53.2169 317.0829 0001554  83.1646 276.9523 15.08875859 94970,6917.771,95.435,540.711,538.561,0.0
53408.0,STARLINK-4491,PAYLOAD,2024-04-22 20:43:35,15.08853838,0.0001431,53.2163,312.9182,117.0505,243.0633,0.0013368,0.00021059,0.0,0 STARLINK-4491,1 53408U 22097W   24113.86361105  .00021059  00000-0  13368-2 0  9991,2 53408  53.2163 312.9182 0001431 117.0505 243.0633 15.08853838 94627,6917.838,95.437,540.693,538.713,0.0
53408.0,STARLINK-4491,PAYLOAD,2024-04-23 20:34:23,15.08849708,0.0001287,53.2162,308.4569,103.6562,256.4574,0.00063661,9.861e-05,0.0,0 STARLINK-4491,1 53408U 22097W   24114.85721155  .00009861  00000-0  63661-3 0  9995,2 53408  53.2162 308.4569 0001287 103.6562 256.4574 15.08849708 94777,6917.851,95.437,540.606,538.825,0.0
53408.0,STARLINK-4491,PAYLOAD,2024-04-23 22:09:46,15.08847331,0.000142,53.2165,308.1598,85.4815,274.6339,0.00033275,5.013e-05,0.0,0 STARLINK-4491,1 53408U 22097W   24114.92345218  .00005013  00000-0  33275-3 0  9998,2 53408  53.2165 308.1598 0001420  85.4815 274.6339 15.08847331 95273,6917.858,95.437,540.705,538.741,0.0
53408.0,STARLINK-4491,PAYLOAD,2024-04-24 12:28:14,15.0883776,0.0001505,53.2159,305.4817,138.7079,221.4027,5.1935e-05,5.39e-06,0.0,0 STARLINK-4491,1 53408U 22097W   24115.51961251  .00000539  00000-0  51935-4 0  9997,2 53408  53.2159 305.4817 0001505 138.7079 221.4027 15.08837760 94872,6917.887,95.438,540.793,538.711,0.0
53408.0,STARLINK-4491,PAYLOAD,2024-04-24 18:49:47,15.08835603,0.0001385,53.2162,304.2945,105.9081,254.2063,1.3309e-05,-7.6e-07,0.0,0 STARLINK-4491,1 53408U 22097W   24115.78457610 -.00000076  00000-0  13309-4 0  9995,2 53408  53.2162 304.2945 0001385 105.9081 254.2063 15.08835603 95408,6917.894,95.438,540.717,538.801,0.0
53408.0,STARLINK-4491,PAYLOAD,2024-04-25 12:19:01,15.08845158,0.0001188,53.2161,301.0233,103.569,256.5434,0.00019521,2.821e-05,0.0,0 STARLINK-4491,1 53408U 22097W   24116.51321389  .00002821  00000-0  19521-3 0  9990,2 53408  53.2161 301.0233 0001188 103.5690 256.5434 15.08845158 95518,6917.865,95.437,540.551,538.908,0.0
53408.0,STARLINK-4491,PAYLOAD,2024-04-25 18:40:34,15.08844682,0.0001423,53.2172,299.8327,125.992,234.1204,0.00020229,2.933e-05,0.0,0 STARLINK-4491,1 53408U 22097W   24116.77817345  .00002933  00000-0  20229-3 0  9991,2 53408  53.2172 299.8327 0001423 125.9920 234.1204 15.08844682 95062,6917.866,95.437,540.715,538.747,0.0
53408.0,STARLINK-4491,PAYLOAD,2024-04-26 12:09:48,15.08844003,0.0001271,53.2176,296.5627,100.4023,259.7112,0.0001566,2.206e-05,0.0,0 STARLINK-4491,1 53408U 22097W   24117.50681469  .00002206  00000-0  15660-3 0  9995,2 53408  53.2176 296.5627 0001271 100.4023 259.7112 15.08844003 95660,6917.868,95.437,540.612,538.854,0.0
53408.0,STARLINK-4491,PAYLOAD,2024-04-26 18:31:21,15.08845107,0.0001206,53.2174,295.3733,90.3037,269.8093,0.00014447,2.012e-05,0.0,0 STARLINK-4491,1 53408U 22097W   24117.77177400  .00002012  00000-0  14447-3 0  9996,2 53408  53.2174 295.3733 0001206  90.3037 269.8093 15.08845107 95704,6917.865,95.437,540.564,538.895,0.0
53408.0,STARLINK-4491,PAYLOAD,2024-04-27 12:00:35,15.08843352,0.0001295,53.2171,292.1024,91.5503,268.5637,0.00011984,1.62e-05,0.0,0 STARLINK-4491,1 53408U 22097W   24118.50041391  .00001620  00000-0  11984-3 0  9994,2 53408  53.2171 292.1024 0001295  91.5503 268.5637 15.08843352 95810,6917.87,95.437,540.631,538.839,0.0
53408.0,STARLINK-4491,PAYLOAD,2024-04-27 18:22:08,15.08835914,0.0001278,53.2182,290.9101,102.3285,257.7851,-2.2218e-05,-6.41e-06,0.0,0 STARLINK-4491,1 53408U 22097W   24118.76537959 -.00000641  00000-0 -22218-4 0  9999,2 53408  53.2182 290.9101 0001278 102.3285 257.7851 15.08835914 95366,6917.893,95.438,540.642,538.874,0.0
53408.0,STARLINK-4491,PAYLOAD,2024-04-28 03:54:27,15.08840642,0.0001431,53.2203,289.1307,105.7527,254.3624,5.6013e-05,6.04e-06,0.0,0 STARLINK-4491,1 53408U 22097W   24119.16281529  .00000604  00000-0  56013-4 0  9990,2 53408  53.2203 289.1307 0001431 105.7527 254.3624 15.08840642 95427,6917.878,95.438,540.733,538.753,0.0
53408.0,STARLINK-4491,PAYLOAD,2024-04-28 11:51:23,15.08833185,0.0001443,53.2214,287.6477,104.3801,255.7352,4.0247e-05,3.53e-06,0.0,0 STARLINK-4491,1 53408U 22097W   24119.49402135  .00000353  00000-0  40247-4 0  9997,2 53408  53.2214 287.6477 0001443 104.3801 255.7352 15.08833185 95475,6917.901,95.438,540.764,538.768,0.0
53408.0,STARLINK-4491,PAYLOAD,2024-04-28 18:12:56,15.08833243,0.0001417,53.2211,286.4591,104.5386,255.5764,4.1461e-05,3.72e-06,0.0,0 STARLINK-4491,1 53408U 22097W   24119.75898157  .00000372  00000-0  41461-4 0  9999,2 53408  53.2211 286.4591 0001417 104.5386 255.5764 15.08833243 96007,6917.901,95.438,540.746,538.786,0.0
53408.0,STARLINK-4491,PAYLOAD,2024-04-29 03:45:13,15.08850218,0.0001381,53.2207,284.6733,101.4944,258.6204,3.0909e-05,2.04e-06,0.0,0 STARLINK-4491,1 53408U 22097W   24120.15641058  .00000204  00000-0  30909-4 0  9990,2 53408  53.2207 284.6733 0001381 101.4944 258.6204 15.08850218 95571,6917.849,95.437,540.67,538.759,0.0
53408.0,STARLINK-4491,PAYLOAD,2024-04-29 11:42:11,15.08823159,0.0001491,53.2207,283.1849,102.8281,257.2878,5.6729e-05,6.15e-06,0.0,0 STARLINK-4491,1 53408U 22097W   24120.48762930  .00000615  00000-0  56729-4 0  9993,2 53408  53.2207 283.1849 0001491 102.8281 257.2878 15.08823159 95626,6917.932,95.439,540.828,538.765,0.0
53408.0,STARLINK-4491,PAYLOAD,2024-04-29 14:52:57,15.08824256,0.0001496,53.2213,282.5912,108.2809,251.8346,6.6866e-05,7.76e-06,0.0,0 STARLINK-4491,1 53408U 22097W   24120.62010944  .00000776  00000-0  66866-4 0  9991,2 53408  53.2213 282.5912 0001496 108.2809 251.8346 15.08824256 96134,6917.929,95.439,540.828,538.759,0.0
53408.0,STARLINK-4491,PAYLOAD,2024-04-29 19:39:06,15.0883068,0.0001519,53.2202,281.6987,104.8773,255.2388,0.00013438,1.851e-05,0.0,0 STARLINK-4491,1 53408U 22097W   24120.81882662  .00001851  00000-0  13438-3 0  9997,2 53408  53.2202 281.6987 0001519 104.8773 255.2388 15.08830680 95672,6917.909,95.438,540.825,538.723,0.0
53408.0,STARLINK-4491,PAYLOAD,2024-04-30 03:36:01,15.08840126,0.0001442,53.2198,280.2117,98.9561,261.1595,0.00013025,1.786e-05,0.0,0 STARLINK-4491,1 53408U 22097W   24121.15002200  .00001786  00000-0  13025-3 0  9996,2 53408  53.2198 280.2117 0001442  98.9561 261.1595 15.08840126 95727,6917.88,95.438,540.743,538.747,0.0
53408.0,STARLINK-4491,PAYLOAD,2024-04-30 14:43:44,15.08837088,0.0001554,53.2202,278.1305,99.6408,260.476,0.00015022,2.103e-05,0.0,0 STARLINK-4491,1 53408U 22097W   24121.61370600  .00002103  00000-0  15022-3 0  9992,2 53408  53.2202 278.1305 0001554  99.6408 260.4760 15.08837088 96281,6917.889,95.438,540.829,538.679,0.0
53408.0,STARLINK-4491,PAYLOAD,2024-04-30 17:54:30,15.08840732,0.0001237,53.2191,277.5338,87.837,272.2764,0.00014279,1.985e-05,0.0,0 STARLINK-4491,1 53408U 22097W   24121.74618462  .00001985  00000-0  14279-3 0  9997,2 53408  53.2191 277.5338 0001237  87.8370 272.2764 15.08840732 96300,6917.878,95.438,540.599,538.887,0.0
53408.0,STARLINK-4491,PAYLOAD,2024-05-01 03:26:48,15.08849457,0.0001281,53.2195,275.7498,87.347,272.7669,0.00018638,2.68e-05,0.0,0 STARLINK-4491,1 53408U 22097W   24122.14361813  .00002680  00000-0  18638-3 0  9993,2 53408  53.2195 275.7498 0001281  87.3470 272.7669 15.08849457 96364,6917.851,95.437,540.603,538.83,0.0
53408.0,STARLINK-4491,PAYLOAD,2024-05-01 19:20:40,15.08841578,0.0001323,53.22,272.7772,86.5676,273.5467,0.00016936,2.409e-05,0.0,0 STARLINK-4491,1 53408U 22097W   24122.80602274  .00002409  00000-0  16936-3 0  9993,2 53408  53.2200 272.7772 0001323  86.5676 273.5467 15.08841578 95976,6917.876,95.437,540.656,538.825,0.0
53408.0,STARLINK-4491,PAYLOAD,2024-05-02 03:17:35,15.08849768,0.0001385,53.2194,271.2892,87.1538,272.9613,0.00016157,2.285e-05,0.0,0 STARLINK-4491,1 53408U 22097W   24123.13721618  .00002285  00000-0  16157-3 0  9991,2 53408  53.2194 271.2892 0001385  87.1538 272.9613 15.08849768 96029,6917.851,95.437,540.674,538.757,0.0
